NORAD_CAT_ID,OBJECT_NAME,OBJECT_TYPE,EPOCH,MEAN_MOTION,ECCENTRICITY,INCLINATION,RA_OF_ASC_NODE,ARG_OF_PERICENTER,MEAN_ANOMALY,BSTAR,MEAN_MOTION_DOT,MEAN_MOTION_DDOT,TLE_LINE0,TLE_LINE1,TLE_LINE2,SEMIMAJOR_AXIS,PERIOD,APOGEE,PERIGEE,DECAYED
55749.0,STARLINK-5560,PAYLOAD,2023-09-28 12:30:55,14.98326497,0.000305,70.0017,336.3945,265.6356,94.4454,0.00013947,1.571e-05,0.0,0 STARLINK-5560,1 55749U 23028J   23271.52147369  .00001571  00000-0  13947-3 0  9998,2 55749  70.0017 336.3945 0003050 265.6356  94.4454 14.98326497 32256,6950.204,96.107,574.189,569.949,0.0
55749.0,STARLINK-5560,PAYLOAD,2023-09-28 14:07:03,14.98327719,0.0003047,70.0017,336.2262,265.7651,94.316,0.00015711,1.782e-05,0.0,0 STARLINK-5560,1 55749U 23028J   23271.58823333  .00001782  00000-0  15711-3 0  9991,2 55749  70.0017 336.2262 0003047 265.7651  94.3160 14.98327719 32264,6950.2,96.107,574.183,569.947,0.0
55749.0,STARLINK-5560,PAYLOAD,2023-09-29 14:09:03,14.98337507,0.0003111,70.0001,333.7006,267.0442,93.0361,0.00011191,1.243e-05,0.0,0 STARLINK-5560,1 55749U 23028J   23272.58962604  .00001243  00000-0  11191-3 0  9997,2 55749  70.0001 333.7006 0003111 267.0442  93.0361 14.98337507 32412,6950.17,96.107,574.197,569.872,0.0
55749.0,STARLINK-5560,PAYLOAD,2023-09-30 04:34:16,14.98327894,0.0002665,70.0016,332.1859,265.11,94.9755,0.00010742,1.189e-05,0.0,0 STARLINK-5560,1 55749U 23028J   23273.19047274  .00001189  00000-0  10742-3 0  9992,2 55749  70.0016 332.1859 0002665 265.1100  94.9755 14.98327894 32505,6950.199,96.107,573.917,570.212,0.0
55749.0,STARLINK-5560,PAYLOAD,2023-10-01 11:00:48,14.98346068,0.0002956,69.9998,328.9874,269.3583,90.7237,0.00020151,2.313e-05,0.0,0 STARLINK-5560,1 55749U 23028J   23274.45889796  .00002313  00000-0  20151-3 0  9990,2 55749  69.9998 328.9874 0002956 269.3583  90.7237 14.98346068 32698,6950.143,96.106,574.063,569.954,0.0
55749.0,STARLINK-5560,PAYLOAD,2023-10-01 12:36:56,14.98347582,0.0002934,69.9999,328.8192,269.0813,91.001,0.00022006,2.535e-05,0.0,0 STARLINK-5560,1 55749U 23028J   23274.52565618  .00002535  00000-0  22006-3 0  9999,2 55749  69.9999 328.8192 0002934 269.0813  91.0010 14.98347582 32707,6950.139,96.106,574.043,569.964,0.0
55749.0,STARLINK-5560,PAYLOAD,2023-10-01 20:37:37,14.9833394,0.0002294,70.002,327.9782,274.489,85.6007,8.4673e-05,9.18e-06,0.0,0 STARLINK-5560,1 55749U 23028J   23274.85946721  .00000918  00000-0  84673-4 0  9995,2 55749  70.0020 327.9782 0002294 274.4890  85.6007 14.98333940 32757,6950.181,96.107,573.64,570.451,0.0
55749.0,STARLINK-5560,PAYLOAD,2023-10-02 20:39:38,14.98337134,0.0002728,70.0015,325.4532,272.7227,87.3619,-0.0001363,-1.719e-05,0.0,0 STARLINK-5560,1 55749U 23028J   23275.86086411 -.00001719  00000-0 -13630-3 0  9994,2 55749  70.0015 325.4532 0002728 272.7227  87.3619 14.98337134 32908,6950.171,96.107,573.932,570.14,0.0
55749.0,STARLINK-5560,PAYLOAD,2023-10-03 12:40:59,14.98337846,0.0002828,70.0007,323.7693,271.2792,88.8043,0.00013577,1.528e-05,0.0,0 STARLINK-5560,1 55749U 23028J   23276.52846224  .00001528  00000-0  13577-3 0  9990,2 55749  70.0007 323.7693 0002828 271.2792  88.8043 14.98337846 33009,6950.169,96.106,573.999,570.068,0.0
55749.0,STARLINK-5560,PAYLOAD,2023-10-04 11:06:52,14.98330424,0.0002936,70.0003,321.4119,273.7477,86.3346,0.0001526,1.728e-05,0.0,0 STARLINK-5560,1 55749U 23028J   23277.46310607  .00001728  00000-0  15260-3 0  9998,2 55749  70.0003 321.4119 0002936 273.7477  86.3346 14.98330424 33149,6950.192,96.107,574.097,570.016,0.0
55749.0,STARLINK-5560,PAYLOAD,2023-10-04 12:43:00,14.98332535,0.0002918,70.0004,321.2436,273.7439,86.3386,0.0001888,2.161e-05,0.0,0 STARLINK-5560,1 55749U 23028J   23277.52986514  .00002161  00000-0  18880-3 0  9994,2 55749  70.0004 321.2436 0002918 273.7439  86.3386 14.98332535 33158,6950.185,96.107,574.078,570.022,0.0
55749.0,STARLINK-5560,PAYLOAD,2023-10-04 20:43:40,14.9833158,0.0002867,70.0005,320.4021,273.6638,86.4193,9.9559e-05,1.095e-05,0.0,0 STARLINK-5560,1 55749U 23028J   23277.86366560  .00001095  00000-0  99559-4 0  9992,2 55749  70.0005 320.4021 0002867 273.6638  86.4193 14.98331580 33205,6950.188,96.107,574.046,570.06,0.0
55749.0,STARLINK-5560,PAYLOAD,2023-10-05 11:08:53,14.98333804,0.0002795,69.9994,318.8866,271.2608,88.823,4.805e-05,4.8e-06,0.0,0 STARLINK-5560,1 55749U 23028J   23278.46450511  .00000480  00000-0  48050-4 0  9996,2 55749  69.9994 318.8866 0002795 271.2608  88.8230 14.98333804 33296,6950.181,96.107,573.989,570.104,0.0
55749.0,STARLINK-5560,PAYLOAD,2023-10-05 12:45:01,14.98334526,0.0002796,69.9995,318.7182,271.3638,88.7201,5.1956e-05,5.27e-06,0.0,0 STARLINK-5560,1 55749U 23028J   23278.53126414  .00000527  00000-0  51956-4 0  9997,2 55749  69.9995 318.7182 0002796 271.3638  88.7201 14.98334526 33303,6950.179,96.107,573.987,570.101,0.0
55749.0,STARLINK-5560,PAYLOAD,2023-10-06 12:47:01,14.98343496,0.0002881,69.9991,316.1933,270.5898,89.4931,9.8578e-06,2.5e-07,0.0,0 STARLINK-5560,1 55749U 23028J   23279.53265873  .00000025  00000-0  98578-5 0  9996,2 55749  69.9991 316.1933 0002881 270.5898  89.4931 14.98343496 33459,6950.151,96.106,574.018,570.014,0.0
55749.0,STARLINK-5560,PAYLOAD,2023-10-07 11:12:55,14.98329016,0.000275,69.9995,313.8378,267.3666,92.7179,0.00010541,1.165e-05,0.0,0 STARLINK-5560,1 55749U 23028J   23280.46730590  .00001165  00000-0  10541-3 0  9991,2 55749  69.9995 313.8378 0002750 267.3666  92.7179 14.98329016 33590,6950.196,96.107,573.972,570.15,0.0
55749.0,STARLINK-5560,PAYLOAD,2023-10-07 19:13:35,14.98342194,0.0002759,69.9994,312.9962,268.9854,91.0989,-0.00019436,-2.412e-05,0.0,0 STARLINK-5560,1 55749U 23028J   23280.80110199 -.00002412  00000-0 -19436-3 0  9996,2 55749  69.9994 312.9962 0002759 268.9854  91.0989 14.98342194 33642,6950.155,96.106,573.938,570.103,0.0
55749.0,STARLINK-5560,PAYLOAD,2023-10-08 11:14:56,14.98332,0.0002572,69.9992,311.312,262.5948,97.4919,8.1159e-05,8.76e-06,0.0,0 STARLINK-5560,1 55749U 23028J   23281.46870458  .00000876  00000-0  81159-4 0  9992,2 55749  69.9992 311.3120 0002572 262.5948  97.4919 14.98332000 33745,6950.187,96.107,573.839,570.264,0.0
55749.0,STARLINK-5560,PAYLOAD,2023-10-08 19:15:36,14.98347737,0.000274,69.9994,310.4704,271.2057,88.8788,-0.00031213,-3.817e-05,0.0,0 STARLINK-5560,1 55749U 23028J   23281.80250045 -.00003817  00000-0 -31213-3 0  9999,2 55749  69.9994 310.4704 0002740 271.2057  88.8788 14.98347737 33796,6950.138,96.106,573.907,570.099,0.0
55749.0,STARLINK-5560,PAYLOAD,2023-10-09 11:16:56,14.9833293,0.0002756,69.999,308.787,268.7868,91.2975,0.00010918,1.21e-05,0.0,0 STARLINK-5560,1 55749U 23028J   23282.47010308  .00001210  00000-0  10918-3 0  9991,2 55749  69.9990 308.7870 0002756 268.7868  91.2975 14.98332930 33890,6950.184,96.107,573.964,570.133,0.0
55749.0,STARLINK-5560,PAYLOAD,2023-10-10 11:18:57,14.98335709,0.0002828,69.9988,306.2621,267.9048,92.1787,0.00011868,1.324e-05,0.0,0 STARLINK-5560,1 55749U 23028J   23283.47150002  .00001324  00000-0  11868-3 0  9999,2 55749  69.9988 306.2621 0002828 267.9048  92.1787 14.98335709 34041,6950.175,96.107,574.006,570.075,0.0
55749.0,STARLINK-5560,PAYLOAD,2023-10-11 03:20:18,14.98327795,0.0002744,69.999,304.5794,267.7187,92.3658,6.3365e-06,-1.7e-07,0.0,0 STARLINK-5560,1 55749U 23028J   23284.13910757 -.00000017  00000-0  63365-5 0  9994,2 55749  69.9990 304.5794 0002744 267.7187  92.3658 14.98327795 34141,6950.2,96.107,573.972,570.158,0.0
55749.0,STARLINK-5560,PAYLOAD,2023-10-11 11:20:59,14.98329444,0.000289,69.9985,303.7367,266.4573,93.6255,3.2971e-05,3e-06,0.0,0 STARLINK-5560,1 55749U 23028J   23284.47290602  .00000300  00000-0  32971-4 0  9993,2 55749  69.9985 303.7367 0002890 266.4573  93.6255 14.98329444 34194,6950.195,96.107,574.068,570.051,0.0
55749.0,STARLINK-5560,PAYLOAD,2023-10-12 04:58:27,14.98331136,0.0002934,69.998,301.8844,266.9968,93.0855,7.7261e-05,8.29e-06,0.0,0 STARLINK-5560,1 55749U 23028J   23285.20726358  .00000829  00000-0  77261-4 0  9994,2 55749  69.9980 301.8844 0002934 266.9968  93.0855 14.98331136 34304,6950.189,96.107,574.094,570.015,0.0
55749.0,STARLINK-5560,PAYLOAD,2023-10-12 11:22:59,14.98333977,0.0002622,69.9988,301.2112,261.9682,98.118,0.00013146,1.476e-05,0.0,0 STARLINK-5560,1 55749U 23028J   23285.47430095  .00001476  00000-0  13146-3 0  9993,2 55749  69.9988 301.2112 0002622 261.9682  98.1180 14.98333977 34342,6950.181,96.107,573.868,570.223,0.0
55749.0,STARLINK-5560,PAYLOAD,2023-10-13 05:00:28,14.98329409,0.0002665,69.999,299.3606,264.3606,95.7249,0.0001301,1.46e-05,0.0,0 STARLINK-5560,1 55749U 23028J   23286.20866306  .00001460  00000-0  13010-3 0  9996,2 55749  69.9990 299.3606 0002665 264.3606  95.7249 14.98329409 34456,6950.195,96.107,573.912,570.207,0.0
55749.0,STARLINK-5560,PAYLOAD,2023-10-13 11:24:59,14.98371053,0.0002482,69.999,298.6872,256.9831,103.1051,-0.00065636,-7.924e-05,0.0,0 STARLINK-5560,1 55749U 23028J   23286.47568931 -.00007924  00000-0 -65636-3 0  9992,2 55749  69.9990 298.6872 0002482 256.9831 103.1051 14.98371053 34498,6950.066,96.104,573.656,570.206,0.0
55749.0,STARLINK-5560,PAYLOAD,2023-10-13 17:49:32,14.98345177,0.0002743,69.999,298.0136,268.4369,91.6475,-0.00017276,-2.154e-05,0.0,0 STARLINK-5560,1 55749U 23028J   23286.74273772 -.00002154  00000-0 -17276-3 0  9995,2 55749  69.9990 298.0136 0002743 268.4369  91.6475 14.98345177 34533,6950.146,96.106,573.917,570.105,0.0
55749.0,STARLINK-5560,PAYLOAD,2023-10-14 05:02:29,14.98336511,0.0002768,69.9986,296.8348,269.2615,90.8226,3.5417e-05,3.3e-06,0.0,0 STARLINK-5560,1 55749U 23028J   23287.21005913  .00000330  00000-0  35417-4 0  9998,2 55749  69.9986 296.8348 0002768 269.2615  90.8226 14.98336511 34604,6950.173,96.107,573.962,570.114,0.0
55749.0,STARLINK-5560,PAYLOAD,2023-10-14 09:50:53,14.98336416,0.0002703,69.9983,296.3288,265.3659,94.7192,8.3835e-05,9.08e-06,0.0,0 STARLINK-5560,1 55749U 23028J   23287.41033729  .00000908  00000-0  83835-4 0  9994,2 55749  69.9983 296.3288 0002703 265.3659  94.7192 14.98336416 34635,6950.173,96.107,573.917,570.159,0.0
